{
    "links": {
        "self": "http://www.neowsapp.com/rest/v1/neo/3831873?api_key=iIulBulltgU6a56xZRHN4H3l9WmuAYTsLGpBGhQ2"
    },
    "id": "3831873",
    "neo_reference_id": "3831873",
    "name": "(2018 UB)",
    "designation": "2018 UB",
    "nasa_jpl_url": "http://ssd.jpl.nasa.gov/sbdb.cgi?sstr=3831873",
    "absolute_magnitude_h": 24.2,
    "estimated_diameter": {
        "kilometers": {
            "estimated_diameter_min": 0.0384197891,
            "estimated_diameter_max": 0.0859092601
        },
        "meters": {
            "estimated_diameter_min": 38.4197891064,
            "estimated_diameter_max": 85.9092601232
        },
        "miles": {
            "estimated_diameter_min": 0.0238729428,
            "estimated_diameter_max": 0.0533815229
        },
        "feet": {
            "estimated_diameter_min": 126.0491808919,
            "estimated_diameter_max": 281.8545369825
        }
    },
    "is_potentially_hazardous_asteroid": false,
    "close_approach_data": [
        {
            "close_approach_date": "2018-09-29",
            "close_approach_date_full": "2018-Sep-29 12:35",
            "epoch_date_close_approach": 1538224500000,
            "relative_velocity": {
                "kilometers_per_second": "14.7869061004",
                "kilometers_per_hour": "53232.8619615635",
                "miles_per_hour": "33076.8302560615"
            },
            "miss_distance": {
                "astronomical": "0.0367130932",
                "lunar": "14.2813932548",
                "kilometers": "5492200.543831484",
                "miles": "3412695.1691591192"
            },
            "orbiting_body": "Earth"
        }
    ],
    "orbital_data": {
        "orbit_id": "1",
        "orbit_determination_date": "2018-10-19 08:42:08",
        "first_observation_date": "2018-10-16",
        "last_observation_date": "2018-10-19",
        "data_arc_in_days": 3,
        "observations_used": 14,
        "orbit_uncertainty": "9",
        "minimum_orbit_intersection": ".0195477",
        "jupiter_tisserand_invariant": "3.652",
        "epoch_osculation": "2458408.5",
        "eccentricity": ".5907298186945288",
        "semi_major_axis": "1.943811666205152",
        "inclination": "8.662230385482097",
        "ascending_node_longitude": "1.926849675131096",
        "orbital_period": "989.8735124581333",
        "perihelion_distance": ".7955441530514725",
        "perihelion_argument": "304.5085077322253",
        "aphelion_distance": "3.09207917935883",
        "perihelion_time": "2458350.242483114722",
        "mean_anomaly": "21.18725858884634",
        "mean_motion": ".3636828296435765",
        "equinox": "J2000",
        "orbit_class": {
            "orbit_class_type": "APO",
            "orbit_class_description": "Near-Earth asteroid orbits which cross the Earth’s orbit similar to that of 1862 Apollo",
            "orbit_class_range": "a (semi-major axis) > 1.0 AU; q (perihelion) < 1.017 AU"
        }
    },
    "is_sentry_object": false
}